[{"OBJECT_NAME":"GRUS-1C","OBJECT_ID":"2021-022B","EPOCH":"2026-03-09T22:02:59.067744","MEAN_MOTION":14.98740486,"ECCENTRICITY":0.00125084,"INCLINATION":97.5524,"RA_OF_ASC_NODE":315.2446,"ARG_OF_PERICENTER":300.8214,"MEAN_ANOMALY":59.1778,"EPHEMERIS_TYPE":0,"CLASSIFICATION_TYPE":"U","NORAD_CAT_ID":47933,"ELEMENT_SET_NO":999,"REV_AT_EPOCH":27103,"BSTAR":0.00015887452,"MEAN_MOTION_DOT":1.857e-5,"MEAN_MOTION_DDOT":0},{"OBJECT_NAME":"STARLINK-5995","OBJECT_ID":"2023-064J","EPOCH":"2026-03-09T14:44:24.607680","MEAN_MOTION":14.98321135,"ECCENTRICITY":0.0003054,"INCLINATION":70.0005,"RA_OF_ASC_NODE":144.6943,"ARG_OF_PERICENTER":267.8825,"MEAN_ANOMALY":92.1984,"EPHEMERIS_TYPE":0,"CLASSIFICATION_TYPE":"U","NORAD_CAT_ID":56456,"ELEMENT_SET_NO":999,"REV_AT_EPOCH":15523,"BSTAR":-0.00012353,"MEAN_MOTION_DOT":-1.566e-5,"MEAN_MOTION_DDOT":0}]
